{
  "type": "FeatureCollection",
  "features": [
    {
      "type": "Feature",
      "properties": {
        "norad_id": 37966,
        "name": "COSMOS 2251 DEB",
        "group": "cosmos-2251-debris",
        "lat": 70.82543622714114,
        "lon": -94.46306122481768,
        "alt_km": 511.10023589149296,
        "timestamp": "2025-12-22T16:55:17.862758+00:00",
        "meta_object_name": "COSMOS 2251 DEB",
        "meta_object_id": "1993-036BPR",
        "meta_epoch": "2025-12-13T08:51:38.421216",
        "meta_mean_motion": 15.12745257,
        "meta_eccentricity": 0.0008827,
        "meta_inclination": 73.9781,
        "meta_ra_of_asc_node": 229.2381,
        "meta_arg_of_pericenter": 105.5668,
        "meta_mean_anomaly": 254.6501,
        "meta_ephemeris_type": 0,
        "meta_classification_type": "U",
        "meta_norad_cat_id": 37966,
        "meta_element_set_no": 999,
        "meta_rev_at_epoch": 85352,
        "meta_bstar": 0.0033929,
        "meta_mean_motion_dot": 0.00060007,
        "meta_mean_motion_ddot": 0,
        "tle_line1": "1 37966U 93036BPR 25347.36919469  .00060007  00000+0  33929-2 0  9990",
        "tle_line2": "2 37966  73.9781 229.2381 0008827 105.5668 254.6501 15.12745257853526"
      },
      "geometry": {
        "type": "Point",
        "coordinates": [
          -94.46306122481768,
          70.82543622714114
        ]
      }
    },
    {
      "type": "Feature",
      "properties": {
        "norad_id": 37967,
        "name": "COSMOS 2251 DEB",
        "group": "cosmos-2251-debris",
        "lat": 21.485930003692822,
        "lon": 125.39959571779177,
        "alt_km": 819.6068902098059,
        "timestamp": "2025-12-22T16:55:17.862768+00:00",
        "meta_object_name": "COSMOS 2251 DEB",
        "meta_object_id": "1993-036BPS",
        "meta_epoch": "2025-12-22T01:49:01.207488",
        "meta_mean_motion": 14.40612798,
        "meta_eccentricity": 0.01510383,
        "meta_inclination": 74.0159,
        "meta_ra_of_asc_node": 120.0869,
        "meta_arg_of_pericenter": 256.8884,
        "meta_mean_anomaly": 101.5378,
        "meta_ephemeris_type": 0,
        "meta_classification_type": "U",
        "meta_norad_cat_id": 37967,
        "meta_element_set_no": 999,
        "meta_rev_at_epoch": 64870,
        "meta_bstar": 0.0017999516,
        "meta_mean_motion_dot": 6.547e-05,
        "meta_mean_motion_ddot": 0,
        "tle_line1": "1 37967U 93036BPS 25356.07570842  .00006547  00000+0  18000-2 0  9999",
        "tle_line2": "2 37967  74.0159 120.0869 0151038 256.8884 101.5378 14.40612798648707"
      },
      "geometry": {
        "type": "Point",
        "coordinates": [
          125.39959571779177,
          21.485930003692822
        ]
      }
    },
    {
      "type": "Feature",
      "properties": {
        "norad_id": 37968,
        "name": "COSMOS 2251 DEB",
        "group": "cosmos-2251-debris",
        "lat": 10.127662287461423,
        "lon": 67.8987153295772,
        "alt_km": 619.6590041968839,
        "timestamp": "2025-12-22T16:55:17.862778+00:00",
        "meta_object_name": "COSMOS 2251 DEB",
        "meta_object_id": "1993-036BPT",
        "meta_epoch": "2025-12-21T00:10:33.901248",
        "meta_mean_motion": 15.00806785,
        "meta_eccentricity": 0.00805513,
        "meta_inclination": 74.0006,
        "meta_ra_of_asc_node": 254.2977,
        "meta_arg_of_pericenter": 7.8808,
        "meta_mean_anomaly": 352.3622,
        "meta_ephemeris_type": 0,
        "meta_classification_type": "U",
        "meta_norad_cat_id": 37968,
        "meta_element_set_no": 999,
        "meta_rev_at_epoch": 60343,
        "meta_bstar": 0.00064941669,
        "meta_mean_motion_dot": 8.807e-05,
        "meta_mean_motion_ddot": 0,
        "tle_line1": "1 37968U 93036BPT 25355.00733682  .00008807  00000+0  64942-3 0  9993",
        "tle_line2": "2 37968  74.0006 254.2977 0080551   7.8808 352.3622 15.00806785603437"
      },
      "geometry": {
        "type": "Point",
        "coordinates": [
          67.8987153295772,
          10.127662287461423
        ]
      }
    },
    {
      "type": "Feature",
      "properties": {
        "norad_id": 37971,
        "name": "COSMOS 2251 DEB",
        "group": "cosmos-2251-debris",
        "lat": 20.78117403798555,
        "lon": 29.269806206264068,
        "alt_km": 764.1150439876119,
        "timestamp": "2025-12-22T16:55:17.862789+00:00",
        "meta_object_name": "COSMOS 2251 DEB",
        "meta_object_id": "1993-036BPW",
        "meta_epoch": "2025-12-21T19:16:34.897152",
        "meta_mean_motion": 14.48757325,
        "meta_eccentricity": 0.00659406,
        "meta_inclination": 73.9924,
        "meta_ra_of_asc_node": 24.7096,
        "meta_arg_of_pericenter": 161.9609,
        "meta_mean_anomaly": 198.3914,
        "meta_ephemeris_type": 0,
        "meta_classification_type": "U",
        "meta_norad_cat_id": 37971,
        "meta_element_set_no": 999,
        "meta_rev_at_epoch": 60809,
        "meta_bstar": 0.0013046337,
        "meta_mean_motion_dot": 5.035e-05,
        "meta_mean_motion_ddot": 0,
        "tle_line1": "1 37971U 93036BPW 25355.80318168  .00005035  00000+0  13046-2 0  9991",
        "tle_line2": "2 37971  73.9924  24.7096 0065940 161.9609 198.3914 14.48757325608091"
      },
      "geometry": {
        "type": "Point",
        "coordinates": [
          29.269806206264068,
          20.78117403798555
        ]
      }
    },
    {
      "type": "Feature",
      "properties": {
        "norad_id": 37975,
        "name": "COSMOS 2251 DEB",
        "group": "cosmos-2251-debris",
        "lat": 1.8418513251209814,
        "lon": 123.97969967252106,
        "alt_km": 669.0229702398974,
        "timestamp": "2025-12-22T16:55:17.862799+00:00",
        "meta_object_name": "COSMOS 2251 DEB",
        "meta_object_id": "1993-036BQA",
        "meta_epoch": "2025-12-22T03:06:01.103616",
        "meta_mean_motion": 14.76502233,
        "meta_eccentricity": 0.00947052,
        "meta_inclination": 74.0027,
        "meta_ra_of_asc_node": 305.6384,
        "meta_arg_of_pericenter": 293.0752,
        "meta_mean_anomaly": 66.0459,
        "meta_ephemeris_type": 0,
        "meta_classification_type": "U",
        "meta_norad_cat_id": 37975,
        "meta_element_set_no": 999,
        "meta_rev_at_epoch": 69884,
        "meta_bstar": 0.0037841877,
        "meta_mean_motion_dot": 0.00028465,
        "meta_mean_motion_ddot": 0,
        "tle_line1": "1 37975U 93036BQA 25356.12917944  .00028465  00000+0  37842-2 0  9990",
        "tle_line2": "2 37975  74.0027 305.6384 0094705 293.0752  66.0459 14.76502233698843"
      },
      "geometry": {
        "type": "Point",
        "coordinates": [
          123.97969967252106,
          1.8418513251209814
        ]
      }
    },
    {
      "type": "Feature",
      "properties": {
        "norad_id": 37985,
        "name": "COSMOS 2251 DEB",
        "group": "cosmos-2251-debris",
        "lat": -40.759968625738516,
        "lon": 81.74198889132379,
        "alt_km": 792.0106254753418,
        "timestamp": "2025-12-22T16:55:17.862809+00:00",
        "meta_object_name": "COSMOS 2251 DEB",
        "meta_object_id": "1993-036BQL",
        "meta_epoch": "2025-12-21T23:09:40.593024",
        "meta_mean_motion": 14.35485723,
        "meta_eccentricity": 0.00211869,
        "meta_inclination": 74.025,
        "meta_ra_of_asc_node": 248.8047,
        "meta_arg_of_pericenter": 9.0301,
        "meta_mean_anomaly": 351.1228,
        "meta_ephemeris_type": 0,
        "meta_classification_type": "U",
        "meta_norad_cat_id": 37985,
        "meta_element_set_no": 999,
        "meta_rev_at_epoch": 65049,
        "meta_bstar": 5.1256722e-05,
        "meta_mean_motion_dot": 1.21e-06,
        "meta_mean_motion_ddot": 0,
        "tle_line1": "1 37985U 93036BQL 25355.96505316  .00000121  00000+0  51257-4 0  9995",
        "tle_line2": "2 37985  74.0250 248.8047 0021186   9.0301 351.1228 14.35485723650494"
      },
      "geometry": {
        "type": "Point",
        "coordinates": [
          81.74198889132379,
          -40.759968625738516
        ]
      }
    },
    {
      "type": "Feature",
      "properties": {
        "norad_id": 37988,
        "name": "COSMOS 2251 DEB",
        "group": "cosmos-2251-debris",
        "lat": -17.858077141922795,
        "lon": -0.5149382465643624,
        "alt_km": 645.117597640181,
        "timestamp": "2025-12-22T16:55:17.862819+00:00",
        "meta_object_name": "COSMOS 2251 DEB",
        "meta_object_id": "1993-036BQP",
        "meta_epoch": "2025-12-19T02:22:34.688640",
        "meta_mean_motion": 14.6891967,
        "meta_eccentricity": 0.00635463,
        "meta_inclination": 74.062,
        "meta_ra_of_asc_node": 11.7337,
        "meta_arg_of_pericenter": 47.3595,
        "meta_mean_anomaly": 313.2907,
        "meta_ephemeris_type": 0,
        "meta_classification_type": "U",
        "meta_norad_cat_id": 37988,
        "meta_element_set_no": 999,
        "meta_rev_at_epoch": 23489,
        "meta_bstar": 0.00064166354,
        "meta_mean_motion_dot": 3.842e-05,
        "meta_mean_motion_ddot": 0,
        "tle_line1": "1 37988U 93036BQP 25353.09901260  .00003842  00000+0  64166-3 0  9993",
        "tle_line2": "2 37988  74.0620  11.7337 0063546  47.3595 313.2907 14.68919670234897"
      },
      "geometry": {
        "type": "Point",
        "coordinates": [
          -0.5149382465643624,
          -17.858077141922795
        ]
      }
    }
  ]
}